{
  "type": "FeatureCollection",
  "features": [
    {
      "type": "Feature",
      "properties": {
        "norad_id": 66911,
        "name": "1998-067XX",
        "group": "last-30-days",
        "lat": -5.122598828412076,
        "lon": -72.723388626077,
        "alt_km": 408.3370733332158,
        "timestamp": "2025-12-20T14:38:00.690714+00:00",
        "meta_object_name": "1998-067XX",
        "meta_object_id": "1998-067XX",
        "meta_epoch": "2025-12-19T19:18:04.960512",
        "meta_mean_motion": 15.52964022,
        "meta_eccentricity": 0.00039341,
        "meta_inclination": 51.6304,
        "meta_ra_of_asc_node": 107.215,
        "meta_arg_of_pericenter": 254.2011,
        "meta_mean_anomaly": 105.8545,
        "meta_ephemeris_type": 0,
        "meta_classification_type": "U",
        "meta_norad_cat_id": 66911,
        "meta_element_set_no": 999,
        "meta_rev_at_epoch": 270,
        "meta_bstar": 0.00082358587,
        "meta_mean_motion_dot": 0.00052143,
        "meta_mean_motion_ddot": 0,
        "tle_line1": "1 66911U 98067XX  25353.80422408  .00052143  00000+0  82359-3 0  9993",
        "tle_line2": "2 66911  51.6304 107.2150 0003934 254.2011 105.8545 15.52964022  2707"
      },
      "geometry": {
        "type": "Point",
        "coordinates": [
          -72.723388626077,
          -5.122598828412076
        ]
      }
    },
    {
      "type": "Feature",
      "properties": {
        "norad_id": 66912,
        "name": "1998-067XY",
        "group": "last-30-days",
        "lat": 33.5780545537783,
        "lon": -108.42343175994358,
        "alt_km": 408.6485693259274,
        "timestamp": "2025-12-20T14:38:00.690726+00:00",
        "meta_object_name": "1998-067XY",
        "meta_object_id": "1998-067XY",
        "meta_epoch": "2025-12-19T14:52:14.043072",
        "meta_mean_motion": 15.51780846,
        "meta_eccentricity": 0.0004012,
        "meta_inclination": 51.6307,
        "meta_ra_of_asc_node": 108.231,
        "meta_arg_of_pericenter": 260.881,
        "meta_mean_anomaly": 99.1725,
        "meta_ephemeris_type": 0,
        "meta_classification_type": "U",
        "meta_norad_cat_id": 66912,
        "meta_element_set_no": 999,
        "meta_rev_at_epoch": 267,
        "meta_bstar": 0.00063264,
        "meta_mean_motion_dot": 0.00038197,
        "meta_mean_motion_ddot": 0,
        "tle_line1": "1 66912U 98067XY  25353.61960698  .00038197  00000+0  63264-3 0  9998",
        "tle_line2": "2 66912  51.6307 108.2310 0004012 260.8810  99.1725 15.51780846  2678"
      },
      "geometry": {
        "type": "Point",
        "coordinates": [
          -108.42343175994358,
          33.5780545537783
        ]
      }
    },
    {
      "type": "Feature",
      "properties": {
        "norad_id": 66913,
        "name": "2025-284A",
        "group": "last-30-days",
        "lat": -2.5071354542088726,
        "lon": -59.76205786103062,
        "alt_km": 508.04788246368935,
        "timestamp": "2025-12-20T14:38:00.690737+00:00",
        "meta_object_name": "2025-284A",
        "meta_object_id": "2025-284A",
        "meta_epoch": "2025-12-18T06:24:29.359008",
        "meta_mean_motion": 15.16462178,
        "meta_eccentricity": 0.00203688,
        "meta_inclination": 80.4052,
        "meta_ra_of_asc_node": 122.7714,
        "meta_arg_of_pericenter": 156.4299,
        "meta_mean_anomaly": 203.7866,
        "meta_ephemeris_type": 0,
        "meta_classification_type": "U",
        "meta_norad_cat_id": 66913,
        "meta_element_set_no": 999,
        "meta_rev_at_epoch": 196,
        "meta_bstar": 0.00046237905,
        "meta_mean_motion_dot": 9.066e-05,
        "meta_mean_motion_ddot": 0,
        "tle_line1": "1 66913U 25284A   25352.26700647  .00009066  00000+0  46238-3 0  9991",
        "tle_line2": "2 66913  80.4052 122.7714 0020368 156.4299 203.7866 15.16462178  1964"
      },
      "geometry": {
        "type": "Point",
        "coordinates": [
          -59.76205786103062,
          -2.5071354542088726
        ]
      }
    },
    {
      "type": "Feature",
      "properties": {
        "norad_id": 66914,
        "name": "2025-284B",
        "group": "last-30-days",
        "lat": -51.60588269810572,
        "lon": -47.88299008891635,
        "alt_km": 510.0962190521186,
        "timestamp": "2025-12-20T14:38:00.690749+00:00",
        "meta_object_name": "2025-284B",
        "meta_object_id": "2025-284B",
        "meta_epoch": "2025-12-16T06:51:11.417184",
        "meta_mean_motion": 15.18985981,
        "meta_eccentricity": 0.00081793,
        "meta_inclination": 80.4045,
        "meta_ra_of_asc_node": 125.2713,
        "meta_arg_of_pericenter": 234.9626,
        "meta_mean_anomaly": 125.0834,
        "meta_ephemeris_type": 0,
        "meta_classification_type": "U",
        "meta_norad_cat_id": 66914,
        "meta_element_set_no": 999,
        "meta_rev_at_epoch": 166,
        "meta_bstar": 0.00038444995,
        "meta_mean_motion_dot": 8.068e-05,
        "meta_mean_motion_ddot": 0,
        "tle_line1": "1 66914U 25284B   25350.28554881  .00008068  00000+0  38445-3 0  9991",
        "tle_line2": "2 66914  80.4045 125.2713 0008179 234.9626 125.0834 15.18985981  1668"
      },
      "geometry": {
        "type": "Point",
        "coordinates": [
          -47.88299008891635,
          -51.60588269810572
        ]
      }
    },
    {
      "type": "Feature",
      "properties": {
        "norad_id": 66915,
        "name": "HULIANWANG DIGUI-105",
        "group": "last-30-days",
        "lat": 18.274708372815514,
        "lon": 101.31921547280214,
        "alt_km": 877.3443812080814,
        "timestamp": "2025-12-20T14:38:00.690759+00:00",
        "meta_object_name": "HULIANWANG DIGUI-105",
        "meta_object_id": "2025-285A",
        "meta_epoch": "2025-12-20T07:41:04.289856",
        "meta_mean_motion": 14.03717823,
        "meta_eccentricity": 0.00080355,
        "meta_inclination": 50.0048,
        "meta_ra_of_asc_node": 86.4042,
        "meta_arg_of_pericenter": 307.999,
        "meta_mean_anomaly": 52.0188,
        "meta_ephemeris_type": 0,
        "meta_classification_type": "U",
        "meta_norad_cat_id": 66915,
        "meta_element_set_no": 999,
        "meta_rev_at_epoch": 197,
        "meta_bstar": 9.744822e-05,
        "meta_mean_motion_dot": 3e-08,
        "meta_mean_motion_ddot": 0,
        "tle_line1": "1 66915U 25285A   25354.32018854  .00000003  00000+0  97448-4 0  9997",
        "tle_line2": "2 66915  50.0048  86.4042 0008035 307.9990  52.0188 14.03717823  1970"
      },
      "geometry": {
        "type": "Point",
        "coordinates": [
          101.31921547280214,
          18.274708372815514
        ]
      }
    },
    {
      "type": "Feature",
      "properties": {
        "norad_id": 66916,
        "name": "HULIANWANG DIGUI-106",
        "group": "last-30-days",
        "lat": 28.70908518372283,
        "lon": 112.57073414121287,
        "alt_km": 877.8118521450324,
        "timestamp": "2025-12-20T14:38:00.690770+00:00",
        "meta_object_name": "HULIANWANG DIGUI-106",
        "meta_object_id": "2025-285B",
        "meta_epoch": "2025-12-20T07:36:53.419680",
        "meta_mean_motion": 14.03702687,
        "meta_eccentricity": 0.00068204,
        "meta_inclination": 50.0059,
        "meta_ra_of_asc_node": 86.3904,
        "meta_arg_of_pericenter": 301.1988,
        "meta_mean_anomaly": 58.8247,
        "meta_ephemeris_type": 0,
        "meta_classification_type": "U",
        "meta_norad_cat_id": 66916,
        "meta_element_set_no": 999,
        "meta_rev_at_epoch": 197,
        "meta_bstar": 8.5391804e-05,
        "meta_mean_motion_dot": -1.6e-07,
        "meta_mean_motion_ddot": 0,
        "tle_line1": "1 66916U 25285B   25354.31728495 -.00000016  00000+0  85392-4 0  9996",
        "tle_line2": "2 66916  50.0059  86.3904 0006820 301.1988  58.8247 14.03702687  1974"
      },
      "geometry": {
        "type": "Point",
        "coordinates": [
          112.57073414121287,
          28.70908518372283
        ]
      }
    },
    {
      "type": "Feature",
      "properties": {
        "norad_id": 66917,
        "name": "HULIANWANG DIGUI-107",
        "group": "last-30-days",
        "lat": 34.82786781566193,
        "lon": 120.9155073295338,
        "alt_km": 877.0195844842783,
        "timestamp": "2025-12-20T14:38:00.690779+00:00",
        "meta_object_name": "HULIANWANG DIGUI-107",
        "meta_object_id": "2025-285C",
        "meta_epoch": "2025-12-20T07:34:12.815904",
        "meta_mean_motion": 14.03662735,
        "meta_eccentricity": 0.00074809,
        "meta_inclination": 50.0025,
        "meta_ra_of_asc_node": 86.3742,
        "meta_arg_of_pericenter": 310.7447,
        "meta_mean_anomaly": 49.2807,
        "meta_ephemeris_type": 0,
        "meta_classification_type": "U",
        "meta_norad_cat_id": 66917,
        "meta_element_set_no": 999,
        "meta_rev_at_epoch": 197,
        "meta_bstar": 8.6681937e-05,
        "meta_mean_motion_dot": -1.4e-07,
        "meta_mean_motion_ddot": 0,
        "tle_line1": "1 66917U 25285C   25354.31542611 -.00000014  00000+0  86682-4 0  9992",
        "tle_line2": "2 66917  50.0025  86.3742 0007480 310.7447  49.2807 14.03662735  1972"
      },
      "geometry": {
        "type": "Point",
        "coordinates": [
          120.9155073295338,
          34.82786781566193
        ]
      }
    }
  ]
}